<?xml version="1.0" encoding="UTF-8"?>
<kml xmlns="http://www.opengis.net/kml/2.2">
  <Document>
    <name>zonas-flash-urbano</name>
    <description/>
    <Style id="poly-01579B-1200-94-normal">
      <LineStyle>
        <color>ff9b5701</color>
        <width>1.2</width>
      </LineStyle>
      <PolyStyle>
        <color>5e9b5701</color>
        <fill>1</fill>
        <outline>1</outline>
      </PolyStyle>
    </Style>
    <Style id="poly-01579B-1200-94-highlight">
      <LineStyle>
        <color>ff9b5701</color>
        <width>1.8</width>
      </LineStyle>
      <PolyStyle>
        <color>5e9b5701</color>
        <fill>1</fill>
        <outline>1</outline>
      </PolyStyle>
    </Style>
    <StyleMap id="poly-01579B-1200-94">
      <Pair>
        <key>normal</key>
        <styleUrl>#poly-01579B-1200-94-normal</styleUrl>
      </Pair>
      <Pair>
        <key>highlight</key>
        <styleUrl>#poly-01579B-1200-94-highlight</styleUrl>
      </Pair>
    </StyleMap>
    <Style id="poly-0288D1-1200-77-normal">
      <LineStyle>
        <color>ffd18802</color>
        <width>1.2</width>
      </LineStyle>
      <PolyStyle>
        <color>4dd18802</color>
        <fill>1</fill>
        <outline>1</outline>
      </PolyStyle>
    </Style>
    <Style id="poly-0288D1-1200-77-highlight">
      <LineStyle>
        <color>ffd18802</color>
        <width>1.8</width>
      </LineStyle>
      <PolyStyle>
        <color>4dd18802</color>
        <fill>1</fill>
        <outline>1</outline>
      </PolyStyle>
    </Style>
    <StyleMap id="poly-0288D1-1200-77">
      <Pair>
        <key>normal</key>
        <styleUrl>#poly-0288D1-1200-77-normal</styleUrl>
      </Pair>
      <Pair>
        <key>highlight</key>
        <styleUrl>#poly-0288D1-1200-77-highlight</styleUrl>
      </Pair>
    </StyleMap>
    <Style id="poly-0F9D58-1200-77-normal">
      <LineStyle>
        <color>ff589d0f</color>
        <width>1.2</width>
      </LineStyle>
      <PolyStyle>
        <color>4d589d0f</color>
        <fill>1</fill>
        <outline>1</outline>
      </PolyStyle>
    </Style>
    <Style id="poly-0F9D58-1200-77-highlight">
      <LineStyle>
        <color>ff589d0f</color>
        <width>1.8</width>
      </LineStyle>
      <PolyStyle>
        <color>4d589d0f</color>
        <fill>1</fill>
        <outline>1</outline>
      </PolyStyle>
    </Style>
    <StyleMap id="poly-0F9D58-1200-77">
      <Pair>
        <key>normal</key>
        <styleUrl>#poly-0F9D58-1200-77-normal</styleUrl>
      </Pair>
      <Pair>
        <key>highlight</key>
        <styleUrl>#poly-0F9D58-1200-77-highlight</styleUrl>
      </Pair>
    </StyleMap>
    <Style id="poly-AFB42B-1200-77-normal">
      <LineStyle>
        <color>ff2bb4af</color>
        <width>1.2</width>
      </LineStyle>
      <PolyStyle>
        <color>4d2bb4af</color>
        <fill>1</fill>
        <outline>1</outline>
      </PolyStyle>
    </Style>
    <Style id="poly-AFB42B-1200-77-highlight">
      <LineStyle>
        <color>ff2bb4af</color>
        <width>1.8</width>
      </LineStyle>
      <PolyStyle>
        <color>4d2bb4af</color>
        <fill>1</fill>
        <outline>1</outline>
      </PolyStyle>
    </Style>
    <StyleMap id="poly-AFB42B-1200-77">
      <Pair>
        <key>normal</key>
        <styleUrl>#poly-AFB42B-1200-77-normal</styleUrl>
      </Pair>
      <Pair>
        <key>highlight</key>
        <styleUrl>#poly-AFB42B-1200-77-highlight</styleUrl>
      </Pair>
    </StyleMap>
    <Style id="poly-F57C00-1200-77-normal">
      <LineStyle>
        <color>ff007cf5</color>
        <width>1.2</width>
      </LineStyle>
      <PolyStyle>
        <color>4d007cf5</color>
        <fill>1</fill>
        <outline>1</outline>
      </PolyStyle>
    </Style>
    <Style id="poly-F57C00-1200-77-highlight">
      <LineStyle>
        <color>ff007cf5</color>
        <width>1.8</width>
      </LineStyle>
      <PolyStyle>
        <color>4d007cf5</color>
        <fill>1</fill>
        <outline>1</outline>
      </PolyStyle>
    </Style>
    <StyleMap id="poly-F57C00-1200-77">
      <Pair>
        <key>normal</key>
        <styleUrl>#poly-F57C00-1200-77-normal</styleUrl>
      </Pair>
      <Pair>
        <key>highlight</key>
        <styleUrl>#poly-F57C00-1200-77-highlight</styleUrl>
      </Pair>
    </StyleMap>
    <Folder>
      <name>Zona 2</name>
      <Placemark>
        <name>Zona 2</name>
        <description>$ 200</description>
        <styleUrl>#poly-0288D1-1200-77</styleUrl>
        <Polygon>
          <outerBoundaryIs>
            <LinearRing>
              <tessellate>1</tessellate>
              <coordinates>
                -56.2706593,-34.7742431,0
                -56.2722043,-34.7765344,0
                -56.2737063,-34.7788256,0
                -56.2749938,-34.7817865,0
                -56.2750796,-34.7833726,0
                -56.2748221,-34.7853816,0
                -56.2741784,-34.7867915,0
                -56.2731484,-34.788589,0
                -56.2715605,-34.7902807,0
                -56.2694148,-34.7933469,0
                -56.267784,-34.7952147,0
                -56.2647799,-34.7993027,0
                -56.2583426,-34.8154059,0
                -56.2570981,-34.8185064,0
                -56.2557193,-34.8204148,0
                -56.2527851,-34.8229103,0
                -56.2511758,-34.8254116,0
                -56.2511114,-34.8271378,0
                -56.2515405,-34.8286349,0
                -56.2522272,-34.830044,0
                -56.2530426,-34.8314883,0
                -56.2535576,-34.8327036,0
                -56.2539223,-34.8342536,0
                -56.2539867,-34.8360676,0
                -56.2541155,-34.8498217,0
                -56.2543944,-34.8512304,0
                -56.2549952,-34.8534667,0
                -56.2561969,-34.8563016,0
                -56.2568406,-34.8586082,0
                -56.2568835,-34.8597527,0
                -56.2564114,-34.8612493,0
                -56.2548665,-34.8630628,0
                -56.2537292,-34.8638551,0
                -56.2508539,-34.8646297,0
                -56.249266,-34.8650523,0
                -56.2475065,-34.865915,0
                -56.2450174,-34.8680805,0
                -56.2417988,-34.8708445,0
                -56.2227658,-34.8552099,0
                -56.2219075,-34.8544704,0
                -56.2242035,-34.8516354,0
                -56.2217573,-34.8431122,0
                -56.2215427,-34.8345882,0
                -56.2208899,-34.8311187,0
                -56.2200943,-34.8275165,0
                -56.2197188,-34.8259752,0
                -56.2204913,-34.8153707,0
                -56.1896995,-34.8337252,0
                -56.1879615,-34.8347467,0
                -56.1859874,-34.8355569,0
                -56.1820821,-34.8368778,0
                -56.1404166,-34.8325804,0
                -56.1396203,-34.8361299,0
                -56.1391268,-34.837442,0
                -56.1386762,-34.838349,0
                -56.1365411,-34.8423644,0
                -56.135479,-34.8449003,0
                -56.1350605,-34.8462475,0
                -56.1337731,-34.8482198,0
                -56.1334727,-34.8486249,0
                -56.1331508,-34.8502449,0
                -56.1323783,-34.8547087,0
                -56.1322603,-34.8549376,0
                -56.1315951,-34.855237,0
                -56.1272109,-34.8497434,0
                -56.1264131,-34.8476563,0
                -56.1245463,-34.8417921,0
                -56.1124441,-34.8346241,0
                -56.1118433,-34.8340957,0
                -56.1090753,-34.8289526,0
                -56.1077449,-34.8278606,0
                -56.1021016,-34.8246548,0
                -56.1014364,-34.8238445,0
                -56.0975954,-34.8165164,0
                -56.0943982,-34.8109142,0
                -56.0904071,-34.8066858,0
                -56.0882614,-34.8031444,0
                -56.0873387,-34.8019287,0
                -56.0857937,-34.8007129,0
                -56.075494,-34.795233,0
                -56.0735414,-34.79407,0
                -56.0752511,-34.792904,0
                -56.0774827,-34.7925516,0
                -56.0891235,-34.7935824,0
                -56.0925352,-34.7934767,0
                -56.1068904,-34.7905163,0
                -56.1082852,-34.7903224,0
                -56.1093151,-34.7902167,0
                -56.1110961,-34.7907101,0
                -56.1171686,-34.7936529,0
                -56.1185205,-34.7940582,0
                -56.136266,-34.7957498,0
                -56.1483681,-34.7966485,0
                -56.1569726,-34.797459,0
                -56.1581743,-34.7974238,0
                -56.1600625,-34.7968247,0
                -56.163882,-34.7953798,0
                -56.1682808,-34.7937234,0
                -56.1694181,-34.7933357,0
                -56.170963,-34.7931243,0
                -56.1731946,-34.7934062,0
                -56.1769283,-34.7937234,0
                -56.1830437,-34.7943401,0
                -56.1903178,-34.7952212,0
                -56.1959183,-34.795926,0
                -56.1995876,-34.7963313,0
                -56.2009823,-34.7961199,0
                -56.2027633,-34.7953798,0
                -56.2055528,-34.7939525,0
                -56.2129408,-34.7902336,0
                -56.2225538,-34.7851759,0
                -56.2316519,-34.7803118,0
                -56.2332826,-34.7796597,0
                -56.2348061,-34.7796068,0
                -56.2365657,-34.7800651,0
                -56.244784,-34.7824091,0
                -56.2469297,-34.7829906,0
                -56.2477666,-34.7831845,0
                -56.249569,-34.7832021,0
                -56.2510496,-34.7830259,0
                -56.2535172,-34.7821447,0
                -56.2558776,-34.7809815,0
                -56.2609201,-34.7784613,0
                -56.2681728,-34.7752535,0
                -56.2706593,-34.7742431,0
              </coordinates>
            </LinearRing>
          </outerBoundaryIs>
        </Polygon>
      </Placemark>
    </Folder>
    <Folder>
      <name>Zona 4</name>
      <Placemark>
        <name>Zona  4</name>
        <description>$ 250</description>
        <styleUrl>#poly-01579B-1200-94</styleUrl>
        <Polygon>
          <outerBoundaryIs>
            <LinearRing>
              <tessellate>1</tessellate>
              <coordinates>
                -56.1169879,-34.8715851,0
                -56.1140425,-34.8707256,0
                -56.1115373,-34.8703383,0
                -56.1083401,-34.869863,0
                -56.1075914,-34.8699795,0
                -56.1054671,-34.8707365,0
                -56.1026132,-34.871674,0
                -56.1001724,-34.8720701,0
                -56.097635,-34.872387,0
                -56.0967982,-34.8723562,0
                -56.0938478,-34.872255,0
                -56.0867721,-34.8710226,0
                -56.0804259,-34.8699928,0
                -56.0770518,-34.87005,0
                -56.0733181,-34.8701248,0
                -56.0710275,-34.8701512,0
                -56.0696381,-34.870072,0
                -56.0650944,-34.868613,0
                -56.0632706,-34.8680342,0
                -56.0616485,-34.8675066,0
                -56.0606045,-34.8670791,0
                -56.0587591,-34.8659347,0
                -56.0579008,-34.8646495,0
                -56.0571551,-34.8640245,0
                -56.0557872,-34.8631618,0
                -56.051192,-34.8602932,0
                -56.0470325,-34.8576508,0
                -56.0427834,-34.8550297,0
                -56.0381007,-34.8520601,0
                -56.0324949,-34.8485383,0
                -56.0271528,-34.846675,0
                -56.0241272,-34.8457946,0
                -56.0185697,-34.844104,0
                -56.014879,-34.8424838,0
                -56.0134198,-34.8408636,0
                -56.0093429,-34.8238406,0
                -56.0086992,-34.8210574,0
                -56.0101368,-34.8194015,0
                -56.0118964,-34.8189699,0
                -56.0287084,-34.8161073,0
                -56.0325071,-34.8151661,0
                -56.0565774,-34.8012712,0
                -56.0611747,-34.7986282,0
                -56.065021,-34.7963551,0
                -56.0673169,-34.7950512,0
                -56.0692964,-34.7932098,0
                -56.0703425,-34.7928618,0
                -56.071131,-34.7928794,0
                -56.0735128,-34.7941085,0
                -56.0807548,-34.7980687,0
                -56.0858725,-34.8007866,0
                -56.0874067,-34.8020332,0
                -56.0882614,-34.8031444,0
                -56.090341,-34.806645,0
                -56.0913281,-34.8077418,0
                -56.0944877,-34.8111156,0
                -56.0955394,-34.8129889,0
                -56.0988332,-34.8190226,0
                -56.1019392,-34.8246154,0
                -56.1078239,-34.8279754,0
                -56.1090363,-34.8289617,0
                -56.1117239,-34.8340299,0
                -56.1126841,-34.8347741,0
                -56.1188585,-34.8384286,0
                -56.1244966,-34.8418188,0
                -56.124577,-34.8420213,0
                -56.1262239,-34.8470887,0
                -56.1272109,-34.8497434,0
                -56.1290498,-34.8520471,0
                -56.1301683,-34.8534723,0
                -56.1308764,-34.8543692,0
                -56.1313458,-34.8549371,0
                -56.1315951,-34.855237,0
                -56.1268651,-34.8571106,0
                -56.1263609,-34.8573967,0
                -56.1238914,-34.8612591,0
                -56.1223751,-34.8637,0
                -56.1216483,-34.8647674,0
                -56.12068,-34.8661385,0
                -56.1186093,-34.8692106,0
                -56.1169879,-34.8715851,0
              </coordinates>
            </LinearRing>
          </outerBoundaryIs>
        </Polygon>
      </Placemark>
    </Folder>
    <Folder>
      <name>Zona 5</name>
      <Placemark>
        <name>Zona 5</name>
        <description>$ 350</description>
        <styleUrl>#poly-F57C00-1200-77</styleUrl>
        <Polygon>
          <outerBoundaryIs>
            <LinearRing>
              <tessellate>1</tessellate>
              <coordinates>
                -56.0335918,-34.882113,0
                -55.8827237,-34.8008362,0
                -55.8935384,-34.7883957,0
                -55.8971433,-34.7887481,0
                -55.902336,-34.7889243,0
                -55.9046964,-34.7882194,0
                -55.9120778,-34.7867039,0
                -55.9390716,-34.7923782,0
                -55.9404448,-34.7934355,0
                -55.9480838,-34.7991799,0
                -55.9719876,-34.8151422,0
                -55.9823731,-34.8188768,0
                -55.9886388,-34.8212021,0
                -55.9916214,-34.8224704,0
                -56.0094313,-34.8303968,0
                -56.0107616,-34.8309252,0
                -56.0115556,-34.8337257,0
                -56.0127572,-34.8386923,0
                -56.0138515,-34.8417391,0
                -56.0153965,-34.8428662,0
                -56.0241272,-34.8457946,0
                -56.0236148,-34.8482373,0
                -56.029721,-34.8578909,0
                -56.0335918,-34.882113,0
              </coordinates>
            </LinearRing>
          </outerBoundaryIs>
        </Polygon>
      </Placemark>
    </Folder>
    <Folder>
      <name>Zona 3</name>
      <Placemark>
        <name>Zona 3</name>
        <description>$ 250</description>
        <styleUrl>#poly-AFB42B-1200-77</styleUrl>
        <Polygon>
          <outerBoundaryIs>
            <LinearRing>
              <tessellate>1</tessellate>
              <coordinates>
                -56.2417988,-34.8708445,0
                -56.2475065,-34.865915,0
                -56.249266,-34.8650523,0
                -56.2537292,-34.8638551,0
                -56.2548665,-34.8630628,0
                -56.2564114,-34.8612493,0
                -56.2568835,-34.8597527,0
                -56.2568406,-34.8586082,0
                -56.2561969,-34.8563016,0
                -56.2549952,-34.8534667,0
                -56.2541155,-34.8498217,0
                -56.2539223,-34.8342536,0
                -56.2535576,-34.8327036,0
                -56.2530426,-34.8314883,0
                -56.2515405,-34.8286349,0
                -56.2511114,-34.8271378,0
                -56.2511758,-34.8254116,0
                -56.2527851,-34.8229103,0
                -56.2557193,-34.8204148,0
                -56.2570981,-34.8185064,0
                -56.2600431,-34.8115184,0
                -56.262103,-34.8062506,0
                -56.2647101,-34.7996346,0
                -56.2657293,-34.7981721,0
                -56.267784,-34.7952147,0
                -56.2694148,-34.7933469,0
                -56.2715605,-34.7902807,0
                -56.2731484,-34.788589,0
                -56.2741784,-34.7867915,0
                -56.2748221,-34.7853816,0
                -56.2750796,-34.7833726,0
                -56.2749938,-34.7817865,0
                -56.2737063,-34.7788256,0
                -56.2706593,-34.7742431,0
                -56.2855809,-34.767619,0
                -56.3544171,-34.7883456,0
                -56.3889382,-34.7988589,0
                -56.4310106,-34.8282161,0
                -56.4261283,-34.8369802,0
                -56.3796085,-34.8574318,0
                -56.3762518,-34.8611396,0
                -56.3645789,-34.8662102,0
                -56.3519618,-34.8672665,0
                -56.3409754,-34.8705763,0
                -56.3346031,-34.8771113,0
                -56.3322857,-34.8817937,0
                -56.3338092,-34.8847685,0
                -56.3310841,-34.8879191,0
                -56.331878,-34.8905593,0
                -56.3280156,-34.8909113,0
                -56.3242605,-34.8934809,0
                -56.3204196,-34.8945545,0
                -56.3190249,-34.8963848,0
                -56.3164433,-34.8981956,0
                -56.3160141,-34.8992339,0
                -56.3138254,-34.9015041,0
                -56.3149412,-34.9026304,0
                -56.3156279,-34.9037039,0
                -56.3147696,-34.9046717,0
                -56.3118728,-34.9044254,0
                -56.3095339,-34.9031935,0
                -56.3090189,-34.902296,0
                -56.3109716,-34.9013985,0
                -56.3113149,-34.9002722,0
                -56.310242,-34.8981076,0
                -56.3091048,-34.8967173,0
                -56.3066371,-34.8968933,0
                -56.3055213,-34.8952213,0
                -56.3014015,-34.8933205,0
                -56.297818,-34.8934437,0
                -56.2956723,-34.8927925,0
                -56.293033,-34.8948869,0
                -56.2932475,-34.8955381,0
                -56.2924107,-34.8959605,0
                -56.2913164,-34.8956085,0
                -56.2908443,-34.8941653,0
                -56.2902993,-34.8941833,0
                -56.2873382,-34.8969992,0
                -56.2893552,-34.8982312,0
                -56.2893552,-34.8992167,0
                -56.2849778,-34.9002374,0
                -56.2846345,-34.8997799,0
                -56.285879,-34.89802,0
                -56.2824029,-34.8943241,0
                -56.2781757,-34.8948697,0
                -56.2773603,-34.8950809,0
                -56.2771726,-34.8956925,0
                -56.2771136,-34.8966385,0
                -56.2768346,-34.8981476,0
                -56.2775481,-34.8988603,0
                -56.2782508,-34.8985612,0
                -56.27868,-34.8996171,0
                -56.2753326,-34.9016585,0
                -56.2745601,-34.9000394,0
                -56.2719852,-34.8978572,0
                -56.2684661,-34.8991243,0
                -56.2666637,-34.9015881,0
                -56.2604839,-34.9027144,0
                -56.2603981,-34.9060931,0
                -56.256879,-34.9054596,0
                -56.2586814,-34.9002506,0
                -56.2546474,-34.8966605,0
                -56.2446052,-34.8951117,0
                -56.2477809,-34.8790593,0
                -56.2467097,-34.8766675,0
                -56.2455724,-34.8737453,0
                -56.2443654,-34.8733184,0
                -56.2436627,-34.8725658,0
                -56.2417222,-34.8718284,0
                -56.2417988,-34.8708445,0
              </coordinates>
            </LinearRing>
          </outerBoundaryIs>
        </Polygon>
      </Placemark>
    </Folder>
    <Folder>
      <name>Zona 1</name>
      <Placemark>
        <name>Zona 1</name>
        <description>$ 150</description>
        <styleUrl>#poly-0F9D58-1200-77</styleUrl>
        <Polygon>
          <outerBoundaryIs>
            <LinearRing>
              <tessellate>1</tessellate>
              <coordinates>
                -56.2417988,-34.8708445,0
                -56.2413157,-34.8760076,0
                -56.2337411,-34.8804436,0
                -56.2298466,-34.8797571,0
                -56.2260378,-34.8727332,0
                -56.2168325,-34.8738423,0
                -56.2110174,-34.8756907,0
                -56.2060178,-34.878032,0
                -56.1997522,-34.8826967,0
                -56.198057,-34.8864635,0
                -56.1979926,-34.8877308,0
                -56.2037219,-34.888294,0
                -56.2021342,-34.8926061,0
                -56.2014473,-34.8952989,0
                -56.1987008,-34.8992412,0
                -56.2101586,-34.90269,0
                -56.217218,-34.9031828,0
                -56.222132,-34.906139,0
                -56.2172827,-34.9115941,0
                -56.2136348,-34.9118404,0
                -56.2014468,-34.9101512,0
                -56.1993443,-34.9125445,0
                -56.1927997,-34.9128964,0
                -56.185654,-34.9162041,0
                -56.179002,-34.9146911,0
                -56.1714061,-34.9143742,0
                -56.1686595,-34.918597,0
                -56.1715777,-34.9238048,0
                -56.1607631,-34.9304197,0
                -56.1508067,-34.9238048,0
                -56.1468585,-34.9190192,0
                -56.1468585,-34.9136,0
                -56.1423953,-34.9098696,0
                -56.1381038,-34.9122188,0
                -56.1316235,-34.9120515,0
                -56.1299605,-34.9111629,0
                -56.1298425,-34.9096408,0
                -56.133383,-34.9090601,0
                -56.1319668,-34.9048017,0
                -56.127568,-34.9052945,0
                -56.1249394,-34.9054352,0
                -56.1238988,-34.9040626,0
                -56.1240704,-34.901986,0
                -56.1223216,-34.8998303,0
                -56.1184055,-34.8979737,0
                -56.1162383,-34.8977097,0
                -56.1137708,-34.8980792,0
                -56.110595,-34.8965481,0
                -56.1074621,-34.8967064,0
                -56.1018832,-34.8975162,0
                -56.0997374,-34.897789,0
                -56.097892,-34.8967946,0
                -56.0957677,-34.8968209,0
                -56.0942442,-34.8961432,0
                -56.0913045,-34.8952985,0
                -56.0883219,-34.8957913,0
                -56.0826571,-34.8981848,0
                -56.0819276,-34.8998039,0
                -56.0804255,-34.8992759,0
                -56.0762628,-34.8977624,0
                -56.071542,-34.8995574,0
                -56.0648043,-34.8991703,0
                -56.0556204,-34.8915849,0
                -56.0335918,-34.882113,0
                -56.029721,-34.8578909,0
                -56.0244854,-34.8496325,0
                -56.0236148,-34.8482373,0
                -56.0241272,-34.8457946,0
                -56.0324949,-34.8485383,0
                -56.0427834,-34.8550297,0
                -56.0470325,-34.8576508,0
                -56.051192,-34.8602932,0
                -56.0557872,-34.8631618,0
                -56.0571551,-34.8640245,0
                -56.0579008,-34.8646495,0
                -56.0587591,-34.8659347,0
                -56.0606045,-34.8670791,0
                -56.0616485,-34.8675066,0
                -56.0632826,-34.8680442,0
                -56.0650944,-34.868613,0
                -56.0696381,-34.870072,0
                -56.0710275,-34.8701512,0
                -56.0727387,-34.8701381,0
                -56.0804259,-34.8699928,0
                -56.0938478,-34.872255,0
                -56.097635,-34.872387,0
                -56.1026132,-34.871674,0
                -56.1060643,-34.8705299,0
                -56.1066244,-34.8703274,0
                -56.1075914,-34.8699795,0
                -56.1083401,-34.869863,0
                -56.1140425,-34.8707256,0
                -56.1169879,-34.8715851,0
                -56.1223751,-34.8637,0
                -56.1243444,-34.8605623,0
                -56.1263609,-34.8573967,0
                -56.1268651,-34.8571106,0
                -56.1315951,-34.855237,0
                -56.1322603,-34.8549376,0
                -56.1323783,-34.8547087,0
                -56.1334727,-34.8486249,0
                -56.1350605,-34.8462475,0
                -56.135479,-34.8449003,0
                -56.1365411,-34.8423644,0
                -56.1391268,-34.837442,0
                -56.1396203,-34.8361299,0
                -56.1404166,-34.8325804,0
                -56.1820821,-34.8368778,0
                -56.1859874,-34.8355569,0
                -56.1879615,-34.8347467,0
                -56.1896995,-34.8337252,0
                -56.2204913,-34.8153707,0
                -56.2197188,-34.8259752,0
                -56.2208899,-34.8311187,0
                -56.2215427,-34.8345882,0
                -56.2217573,-34.8431122,0
                -56.2242035,-34.8516354,0
                -56.2219075,-34.8544704,0
                -56.2417988,-34.8708445,0
              </coordinates>
            </LinearRing>
          </outerBoundaryIs>
        </Polygon>
      </Placemark>
    </Folder>
  </Document>
</kml>
